#dP2021  1 15 12  0  0.00000000      96 __u+U ITR00 EXT  IAC
## 2140 475200.00000000   900.00000000 59229 0.5000000000000
+  115   C06C07C08C09C10C11C12C13C14C16C19C20C21C22C23C24C25
+        C26C27C28C29C30C32C33C34C35C36C37C38C39C40C43C44C45
+        C46E01E02E03E04E05E07E08E09E11E12E13E14E15E18E19E21
+        E24E25E26E27E30E31E33E36G01G02G03G04G05G06G07G08G09
+        G10G11G12G13G14G15G16G17G18G19G20G21G22G23G24G25G26
+        G27G28G29G30G31G32J01J02J03R01R02R03R04R05R07R08R09
+        R11R12R13R14R15R16R17R18R19R20R21R22R24  0  0  0  0
++         9 13  9 12  9  8  8  8 10  9  8  8  9  9 10  9  9
++         9 10  7  8  8  9  9  8  8  8  9 13 11 14 11 11 11
++        12  8  9  8  8  8  8  8  8  8  9  8  8  9  9  8 10
++         9  9  8  9  9  8  8  9  7  8  8  8  7  8  8  8  8
++         8  9  7  9  9  8 10  8  7  8  8  9  8  8  8  7  8
++         9 11  8  9  8  8 10 10 10  9  8  9  8  8 11  9  8
++         8  9  9  8  8  9  8  9  9  9  9 10  8  0  0  0  0
%c M  cc GPS ccc cccc cccc cccc cccc ccccc ccccc ccccc ccccc
%c cc cc ccc ccc cccc cccc cccc cccc ccccc ccccc ccccc ccccc
%f  0.0000000  0.000000000  0.00000000000  0.000000000000000
%f  0.0000000  0.000000000  0.00000000000  0.000000000000000
%i    0    0    0    0      0      0      0      0         0
%i    0    0    0    0      0      0      0      0         0
/* IAC                                ULTRA-RAPID PREDICTION
/* S/V CLOCKS ARE ALIGNED TO GNSS TIME                      
/* G:C1WC2W R:C1PC2P E:C1XC5X C:C2IC6I J:C1CC2S             
/* PCV:IGS14_2134 OL/AL:FES2004  NONE     YN ORB:CoN CLK:CoN
*  2021 01 15 22 45  0.00000000
PC06  -9817.578162  36974.367508  18670.164809      8.359196
PC07 -13064.918761  23162.640792 -32485.846165   -230.752008
PC08 -24310.039087  30317.574269  15963.247863   -899.964637
PC09    226.217013  42296.593619   3161.296667    800.929992
PC10    986.462522  27290.686013 -31834.092557   -103.419048
PC11 -14152.725678  -8574.913316 -22408.835381   -888.763012
PC12  -6226.824569 -24618.496678 -11552.369706    732.236066
PC13 -10668.310626  30572.243061  26959.211047     99.423421
PC14 -24891.233825 -11667.365831   4977.828606    -88.270098
PC16  -8186.145370  37550.651917  17665.082292   -661.156028
PC19  24056.588720   4160.306827 -13487.397026    692.269962
PC20  22239.456420  16561.642031   3043.261542   -909.540154
PC21  -7033.243895 -19660.281408 -18507.574218   -794.599973
PC22  11947.849250 -11028.727030 -22678.252930   -845.957355
PC23 -20664.796801  16935.718111  -8038.510595   -881.245082
PC24 -15209.353622  -9421.138886  21396.863976   -742.521957
PC25 -25572.539042   6498.871242   9041.878170   -898.683635
PC26   2537.816033 -18304.851013  20911.931190    962.427509
PC27     82.447154  27792.901872   2607.857550    467.031596
PC28 -11220.793686  21151.553125 -14322.655578   -121.292199
PC29  15851.141857  -2758.446160  22798.417963    339.080648
PC30  11801.478860  18103.790964  17668.880254    431.723862
PC32   7119.684999  19614.124908  18538.958735   -883.810552
PC33 -24127.225469  -4080.714691  13428.814051   -916.713446
PC34 -12083.298860 -17498.800860 -18059.952549   -762.314862
PC35  10672.282705 -21287.573554  14522.715882   -463.939950
PC36  25684.767545  -5685.235356  -9304.385245   -776.282660
PC37  -3778.662747  18416.200326 -20601.764279   -860.650256
PC38 -22280.098966  31727.214014  16442.707838    124.129447
PC39  -4434.893614  38716.636150  16262.079929     27.454607
PC40  -4773.636974  22150.345945 -35530.108112    121.626020
PC43 -15995.077718   2185.783814 -22764.343577   -553.739065
PC44   -900.845923 -27767.934170  -2419.688323    -11.478326
PC45  20629.833983 -16976.085288   8110.764416    336.244717
PC46  15958.994091   8668.663810 -21196.454079    450.494977
PE01  10368.518825  15368.089961 -23078.063435  -1025.554484
PE02 -10452.749860 -15344.987564  23045.901942    191.317842
PE03 -12591.878915 -26506.704524  -3924.482491   -387.740770
PE04  20863.638060  15741.041791 -13899.871446   -689.605413
PE05   3193.389576 -21864.152729 -19699.618453   -312.594139
PE07 -16964.967996   4511.526837  23833.522912   -488.154638
PE08 -20912.489114 -15419.973899  14184.349968   6061.495981
PE09  16735.147254  -4701.835012 -23959.493315   5797.870088
PE11  20036.720269 -14861.286941  15923.713083   6464.560086
PE12  15147.716993   6073.784822  24702.527660   5404.912942
PE13 -19961.132683  14623.375806 -16234.938002    410.330558
PE14 -19854.965819 -17525.514328 -17867.809324  -1296.031381
PE15 -15130.485382  -5900.594330 -24732.559848    834.101759
PE18  12396.920334  18855.637891   9111.522000  -1416.478203
PE19  11041.432179  26784.592841   6084.107231    179.349250
PE21 -11603.927942  15292.500561 -22529.403666   -643.053890
PE24  27832.283265  -5827.308408   8267.736667   -691.564401
PE25  11816.336011 -15248.419240  22459.514454   -524.397119
PE26 -12751.465686  26597.180118   2468.059704   2261.038128
PE27 -27517.081290   6329.987495  -8852.451301     50.359598
PE30 -26761.371686  -6887.473922  10570.382589   3259.944979
PE31  27172.070933   6285.926070  -9926.515513   -477.388380
PE33   1412.758719  22928.397389  18682.687748   -464.889770
PE36  13063.204582 -26500.823279  -1763.956546    453.755335
PG01  13107.800485 -21769.251959  -7341.113757    779.546437
PG02 -19921.601498  11060.753594 -12993.384906   -566.379508
PG03   6358.891853 -13960.794657 -21753.341580    -57.255400
PG04   3294.068637 -22524.490800 -13637.177113   -172.997303
PG05 -23594.468775   4222.297292  11489.012291    -31.081551
PG06 -15842.125944  -3295.134961 -21007.845269     -4.556771
PG07   -524.134509 -19113.278536  18556.962340     23.010277
PG08   8096.568246 -16514.257135  19061.425487     -6.727849
PG09  -6629.535501 -25528.671820  -3082.327215   -313.117324
PG10  21504.996372  11818.463872  10600.895979    -39.990401
PG11  11145.753200 -23245.107063   6684.350068    -51.972996
PG12 -11001.616853  11866.489678 -21272.843427     12.447459
PG13 -13892.172631   6390.652607  21569.050523     86.321903
PG14 -19510.218076 -13559.251128  11870.752922     85.976796
PG15  -6257.656238  18196.241713  17802.198005   -176.072685
PG16  24335.345638   -391.201153  10942.477426   -265.627721
PG17 -13721.200311 -18581.295264 -12683.447990    380.708751
PG18   2084.957870  17698.981132  19671.092846    341.504245
PG19 -15325.700335 -11552.748352 -18679.040008    -51.421028
PG20  11510.825248  14671.273976  18949.227750    525.156261
PG21  17395.147186 -19687.829346   2527.733988     87.137851
PG22  15178.191732 -11788.597134 -18067.625864   -697.541145
PG23  12184.888823  15036.367871  18181.003491    116.192082
PG24 -14777.121226  21718.707833  -2228.953645      3.632010
PG25   4588.018507  15910.713492 -21073.760085     60.527115
PG26  26338.409564   4415.800648   -115.779183     30.479505
PG27  14537.281476  -3089.593006  21873.822186    -56.757869
PG28 -21027.314836 -13265.398524   9638.334084    629.224334
PG29   4024.583537  25964.447062  -3771.698267   -276.483810
PG30 -10649.024726 -11640.654258  21405.278541   -369.500794
PG31  18017.686984   1116.379872 -19707.487041    -94.112038
PG32  15601.987322  17011.307459 -13192.970970     14.481619
PJ01 -26487.793746  21160.842673  30100.240181   -336.643975
PJ02 -35010.609343  16533.056975 -12192.579245      0.782778
PJ03 -19546.239177  31099.761991 -15924.739051     -0.115959
PR01  13272.709922  18939.682709  10746.702169     73.552691
PR02  19917.178553  12234.127888 -10251.944220    463.033276
PR03  13153.774159  -1838.529436 -21751.422818     29.229153
PR04  -1146.563588 -14536.474090 -20904.805574     70.135630
PR05 -14614.654585 -19169.900578  -8297.807831     64.819410
PR07 -12663.841941   2463.279890  22028.342240    -42.167791
PR08   1076.586912  14653.578503  20906.862893    -56.854722
PR09 -22084.905430    322.470921  12830.834075     18.801468
PR11 -11399.747224  12946.726887 -18784.853152      4.523881
PR12   7649.086134   8911.658558 -22623.647802    196.978137
PR13  21779.072618   -266.073978 -13300.871041    -49.337132
PR14  23307.699382  -9374.527556   4408.103473     59.906062
PR15  11208.651720 -12867.283710  18978.964983    105.880911
PR16  -8623.362257  -8590.032940  22373.193046    -10.243092
PR17  11726.292657 -13672.993674  18094.366407    391.588224
PR18   7454.068530 -24129.624083   3404.518516     63.300695
PR19    176.379915 -22186.185421 -12581.651369   -128.048132
PR20  -9132.058939  -5619.099228 -23127.053551   -431.209713
PR21 -11593.068458  14632.469898 -17362.365132   -180.650176
PR22  -7101.585471  24455.068217  -2200.590278    -92.680535
PR24   9897.327885   4886.518930  23019.077242     27.942020
EOF
